[{"OBJECT_NAME":"CHUANGXIN-3 (CX-3)","OBJECT_ID":"2013-037B","EPOCH":"2026-03-09T23:41:48.559776","MEAN_MOTION":14.74394744,"ECCENTRICITY":0.00055411,"INCLINATION":98.084,"RA_OF_ASC_NODE":75.4374,"ARG_OF_PERICENTER":91.0798,"MEAN_ANOMALY":269.1045,"EPHEMERIS_TYPE":0,"CLASSIFICATION_TYPE":"U","NORAD_CAT_ID":39209,"ELEMENT_SET_NO":999,"REV_AT_EPOCH":67773,"BSTAR":0.00024158213,"MEAN_MOTION_DOT":1.551e-5,"MEAN_MOTION_DDOT":0},{"OBJECT_NAME":"FENGYUN 1C DEB","OBJECT_ID":"1999-025CTG","EPOCH":"2026-03-07T09:47:18.007584","MEAN_MOTION":14.63293082,"ECCENTRICITY":0.00456387,"INCLINATION":99.4485,"RA_OF_ASC_NODE":128.7746,"ARG_OF_PERICENTER":274.7652,"MEAN_ANOMALY":84.8335,"EPHEMERIS_TYPE":0,"CLASSIFICATION_TYPE":"U","NORAD_CAT_ID":32162,"ELEMENT_SET_NO":999,"REV_AT_EPOCH":96156,"BSTAR":0.0016120905,"MEAN_MOTION_DOT":8.389e-5,"MEAN_MOTION_DDOT":0}]
